{
  "type": "FeatureCollection",
  "features": [
    {
      "type": "Feature",
      "geometry": { "type": "Point", "coordinates": [-86.8412, 36.0923] },
      "properties": {
        "plant_id":           "PLT-TN-0042",
        "name":               "Brentwood Quarry",
        "operator":           "Your Company LLC",
        "is_competitor":      false,
        "active":             true,
        "geology":            "Limestone",
        "sic_code":           1422,
        "est_production_tpy": 650000,
        "products":           "#57 Stone, #8 Stone, Dense Grade, Ag Lime, Screenings"
      }
    },
    {
      "type": "Feature",
      "geometry": { "type": "Point", "coordinates": [-87.0315, 36.5190] },
      "properties": {
        "plant_id":           "PLT-TN-0098",
        "name":               "Ashland City Quarry",
        "operator":           "Rival Materials Inc.",
        "is_competitor":      true,
        "active":             true,
        "geology":            "Limestone",
        "sic_code":           1422,
        "est_production_tpy": 900000,
        "products":           "#57 Stone, #4 Stone, Dense Grade, Rip Rap"
      }
    }
  ]
}
