{
  "type": "FeatureCollection",
  "features": [
    {
      "type": "Feature",
      "geometry": {
        "type": "Polygon",
        "coordinates": [
          [
            [
              -121.8676833488498,
              47.26735528227406
            ],
            [
              -121.96280118654799,
              47.26618169342827
            ],
            [
              -121.94985501057455,
              47.2104773926646
            ],
            [
              -122.02658780255865,
              47.214302291787725
            ],
            [
              -122.03526356283362,
              47.15645581352229
            ],
            [
              -122.13459117272728,
              47.10180147317318
            ],
            [
              -122.19794787695103,
              47.096954092926765
            ],
            [
              -122.261,
              47.12042238999519
            ],
            [
              -122.31188335088036,
              47.15949347502302
            ],
            [
              -122.36509082798284,
              47.15815728825941
            ],
            [
              -122.39449319052603,
              47.20294265156548
            ],
            [
              -122.4352762707882,
              47.21676281588935
            ],
            [
              -122.46488562236487,
              47.24121971834124
            ],
            [
              -122.46459570621676,
              47.28324589701993
            ],
            [
              -122.49792023864809,
              47.29799619017441
            ],
            [
              -122.52380605741037,
              47.3183377750741
            ],
            [
              -122.50374309989232,
              47.352968955814084
            ],
            [
              -122.49737587187532,
              47.399944373178535
            ],
            [
              -122.46420114158636,
              47.41518063173088
            ],
            [
              -122.46580881455861,
              47.42655045614959
            ],
            [
              -122.50816895614938,
              47.4430170411694
            ],
            [
              -122.48736680413982,
              47.462039411125794
            ],
            [
              -122.52020798229006,
              47.49364548283489
            ],
            [
              -122.54028737650533,
              47.5301004665124
            ],
            [
              -122.49031001745057,
              47.540052749307286
            ],
            [
              -122.50076771366538,
              47.56067462289351
            ],
            [
              -122.51103096289822,
              47.56531305301259
            ],
            [
              -122.50576006296929,
              47.57051919995223
            ],
            [
              -122.51817929299786,
              47.595009086293054
            ],
            [
              -122.50317264663215,
              47.63454064164299
            ],
            [
              -122.47196497275175,
              47.63637296862804
            ],
            [
              -122.47850224948786,
              47.655799918607585
            ],
            [
              -122.4392755098761,
              47.67381831638824
            ],
            [
              -122.43372511340364,
              47.70314158406458
            ],
            [
              -122.41784544623421,
              47.71335800593415
            ],
            [
              -122.42682162900883,
              47.73537476871977
            ],
            [
              -122.37426175288324,
              47.763508211287416
            ],
            [
              -122.27484917439395,
              47.76193658161172
            ],
            [
              -122.27627063127889,
              47.80835942937883
            ],
            [
              -122.22010820859535,
              47.818558172932235
            ],
            [
              -122.20085796120773,
              47.864048294129795
            ],
            [
              -122.14488791358855,
              47.872223422806535
            ],
            [
              -122.08171029815352,
              47.85531861404636
            ],
            [
              -122.04214473913743,
              47.90461879413772
            ],
            [
              -121.985,
              47.86006760892919
            ],
            [
              -121.93804600703147,
              47.85243544532344
            ],
            [
              -121.87145254255732,
              47.796802636819386
            ],
            [
              -121.82332898895116,
              47.80077646354625
            ],
            [
              -121.81327937645767,
              47.76286797039374
            ],
            [
              -121.81164740995538,
              47.70167386165296
            ],
            [
              -121.77041387048675,
              47.69552107652198
            ],
            [
              -121.79354449272131,
              47.66546225123388
            ],
            [
              -121.79490904193008,
              47.65401975200133
            ],
            [
              -121.75691808390573,
              47.64161166950143
            ],
            [
              -121.74258582296251,
              47.626553719703324
            ],
            [
              -121.74149230411821,
              47.58606102879162
            ],
            [
              -121.70526586484971,
              47.55084368297261
            ],
            [
              -121.71559633626582,
              47.54073621156183
            ],
            [
              -121.70020775175392,
              47.51781782412614
            ],
            [
              -121.70719267148901,
              47.507504922277484
            ],
            [
              -121.72723511967547,
              47.501377041349045
            ],
            [
              -121.71656537422878,
              47.48633836785912
            ],
            [
              -121.72444191509396,
              47.48557472889679
            ],
            [
              -121.72141458322113,
              47.47564944306929
            ],
            [
              -121.74383417775309,
              47.4653495522586
            ],
            [
              -121.7340579327082,
              47.448094671028166
            ],
            [
              -121.74510145280725,
              47.43438833472277
            ],
            [
              -121.74902885742416,
              47.403527961021375
            ],
            [
              -121.79352341945929,
              47.362434700368766
            ],
            [
              -121.80437242295156,
              47.36698774019657
            ],
            [
              -121.81346154388551,
              47.33281489343883
            ],
            [
              -121.85067912283445,
              47.34404305703066
            ],
            [
              -121.86591765952168,
              47.324271028904136
            ],
            [
              -121.9012904015508,
              47.30573871371521
            ],
            [
              -121.8676833488498,
              47.26735528227406
            ]
          ]
        ]
      },
      "properties": {
        "minutes": 45
      }
    },
    {
      "type": "Feature",
      "geometry": {
        "type": "Polygon",
        "coordinates": [
          [
            [
              -122.02713587509737,
              47.35545737233393
            ],
            [
              -122.05819160912002,
              47.34177518742702
            ],
            [
              -122.07274367191788,
              47.29362461430466
            ],
            [
              -122.11826135537585,
              47.29513730582633
            ],
            [
              -122.12693371566857,
              47.2638855502118
            ],
            [
              -122.1531058827061,
              47.24475801315347
            ],
            [
              -122.18804981338288,
              47.236791407907845
            ],
            [
              -122.261,
              47.24189814354473
            ],
            [
              -122.29413910557703,
              47.250687074645064
            ],
            [
              -122.33002948931053,
              47.246691672243784
            ],
            [
              -122.36580353045477,
              47.298179045385055
            ],
            [
              -122.39151507223714,
              47.305915688632936
            ],
            [
              -122.38774429937536,
              47.335244030030275
            ],
            [
              -122.41050481434107,
              47.3433803679409
            ],
            [
              -122.40499697239869,
              47.380643489778954
            ],
            [
              -122.41417411930078,
              47.39323013471563
            ],
            [
              -122.3893815010423,
              47.40956417554262
            ],
            [
              -122.3882924759162,
              47.421
            ],
            [
              -122.41143116667756,
              47.448272578763806
            ],
            [
              -122.42880511133208,
              47.48655117584824
            ],
            [
              -122.40784476233478,
              47.497238591194986
            ],
            [
              -122.42278628111329,
              47.53046558964026
            ],
            [
              -122.37306400887769,
              47.552329626860946
            ],
            [
              -122.36081770352267,
              47.5840493935399
            ],
            [
              -122.33452558243107,
              47.606661540435375
            ],
            [
              -122.26978583200696,
              47.62195697182218
            ],
            [
              -122.27399523373157,
              47.637649260420915
            ],
            [
              -122.26501699949723,
              47.66258152447688
            ],
            [
              -122.23788135399778,
              47.68261487377386
            ],
            [
              -122.1974641093445,
              47.694695145184774
            ],
            [
              -122.18903366880481,
              47.717544930042514
            ],
            [
              -122.14629335039005,
              47.72073554297641
            ],
            [
              -122.12412348680948,
              47.73422922125526
            ],
            [
              -122.11239440606279,
              47.76075310852633
            ],
            [
              -122.01499638112739,
              47.765601276451406
            ],
            [
              -121.95270052798706,
              47.777394622398766
            ],
            [
              -121.93113439531207,
              47.74752335715716
            ],
            [
              -121.90672929900306,
              47.73938842644044
            ],
            [
              -121.89029089192164,
              47.722587855996345
            ],
            [
              -121.87936190138691,
              47.704810084224285
            ],
            [
              -121.87641877278992,
              47.685199785788946
            ],
            [
              -121.85990768169736,
              47.67670922206834
            ],
            [
              -121.8696979832812,
              47.656877777437685
            ],
            [
              -121.8530697639706,
              47.64884034752619
            ],
            [
              -121.85884292512934,
              47.633368182997614
            ],
            [
              -121.826,
              47.63088636046825
            ],
            [
              -121.77519080177602,
              47.58842186877495
            ],
            [
              -121.7797428486876,
              47.56023361269425
            ],
            [
              -121.76477923794377,
              47.56071922307959
            ],
            [
              -121.7675452564489,
              47.55178780366536
            ],
            [
              -121.75572136341465,
              47.548655811519886
            ],
            [
              -121.76303336570422,
              47.5403921650716
            ],
            [
              -121.75191964499507,
              47.53558529893546
            ],
            [
              -121.75207796420533,
              47.529
            ],
            [
              -121.75887481030884,
              47.523032973516585
            ],
            [
              -121.75701433711814,
              47.50970581256178
            ],
            [
              -121.77874707723959,
              47.49709402554424
            ],
            [
              -121.77562174240563,
              47.484669155330565
            ],
            [
              -121.78166501313618,
              47.45672874334803
            ],
            [
              -121.79444045241723,
              47.449471708400324
            ],
            [
              -121.80666117864568,
              47.429815402367886
            ],
            [
              -121.826,
              47.42962335336987
            ],
            [
              -121.85146194311807,
              47.39841124607192
            ],
            [
              -121.88417867158903,
              47.38239300739715
            ],
            [
              -121.96570528483926,
              47.36561326308887
            ],
            [
              -122.02326674996412,
              47.368349807434065
            ],
            [
              -122.02713587509737,
              47.35545737233393
            ]
          ]
        ]
      },
      "properties": {
        "minutes": 30
      }
    },
    {
      "type": "Feature",
      "geometry": {
        "type": "MultiPolygon",
        "coordinates": [
          [
            [
              [
                -122.2411345238946,
                47.5230953127782
              ],
              [
                -122.21059445932745,
                47.503336024048494
              ],
              [
                -122.19101169746014,
                47.50302042519486
              ],
              [
                -122.13958653562413,
                47.46842880172402
              ],
              [
                -122.1350392457681,
                47.4563016898962
              ],
              [
                -122.1388943355478,
                47.431876792470796
              ],
              [
                -122.12407841770316,
                47.421
              ],
              [
                -122.13964092506278,
                47.41018971139904
              ],
              [
                -122.13999488445026,
                47.38708717460419
              ],
              [
                -122.15978645080598,
                47.36845213736119
              ],
              [
                -122.21052157212391,
                47.338544916767454
              ],
              [
                -122.261,
                47.320071843073734
              ],
              [
                -122.29376980918927,
                47.33825202232083
              ],
              [
                -122.31396981194258,
                47.35892381954756
              ],
              [
                -122.32729321308467,
                47.362544615151435
              ],
              [
                -122.3326204893371,
                47.393022262888145
              ],
              [
                -122.33888073177945,
                47.39917319006279
              ],
              [
                -122.32541305085681,
                47.421
              ],
              [
                -122.34461498827638,
                47.44443388942696
              ],
              [
                -122.34535525061544,
                47.45395242810496
              ],
              [
                -122.33108231972616,
                47.46841812716994
              ],
              [
                -122.32816851808067,
                47.48022720277713
              ],
              [
                -122.28013280867734,
                47.519329890301925
              ],
              [
                -122.261,
                47.51647883161963
              ],
              [
                -122.2411345238946,
                47.5230953127782
              ]
            ]
          ],
          [
            [
              [
                -121.83627457327309,
                47.581696045806645
              ],
              [
                -121.8044085363687,
                47.56419663182449
              ],
              [
                -121.80229579144104,
                47.54500548344091
              ],
              [
                -121.78940406418964,
                47.532253159047606
              ],
              [
                -121.80888487802845,
                47.48587085160687
              ],
              [
                -121.85446810867782,
                47.45726196122475
              ],
              [
                -121.89525190980085,
                47.44800919438915
              ],
              [
                -121.94499077636368,
                47.44865541072705
              ],
              [
                -121.95181717259757,
                47.463812589212786
              ],
              [
                -121.98623356871975,
                47.46653507615009
              ],
              [
                -122.00317801850615,
                47.479446139731316
              ],
              [
                -122.02542778578777,
                47.51323068781551
              ],
              [
                -122.10038910200976,
                47.5342107009976
              ],
              [
                -122.10378938787403,
                47.550551231733465
              ],
              [
                -122.12026764607053,
                47.55935121303492
              ],
              [
                -122.12016995152997,
                47.574254990672856
              ],
              [
                -122.14922701503504,
                47.612
              ],
              [
                -122.1003121644524,
                47.65688172713209
              ],
              [
                -122.07888456277499,
                47.660565708141235
              ],
              [
                -122.04806761434472,
                47.68564140994144
              ],
              [
                -122.0017726448999,
                47.69788701600868
              ],
              [
                -121.95598472043773,
                47.6850010944445
              ],
              [
                -121.9378797795286,
                47.667020306512605
              ],
              [
                -121.92685501584035,
                47.642077919597305
              ],
              [
                -121.92785571858794,
                47.612
              ],
              [
                -121.91122207750193,
                47.598672952715766
              ],
              [
                -121.90394181866307,
                47.58045058633785
              ],
              [
                -121.9068972849176,
                47.57045259600307
              ],
              [
                -121.83627457327309,
                47.581696045806645
              ]
            ]
          ]
        ]
      },
      "properties": {
        "minutes": 15
      }
    }
  ]
}