{
  "type": "FeatureCollection",
  "features": [
    {
      "type": "Feature",
      "geometry": {
        "type": "Point",
        "coordinates": [
          -121.985,
          47.612
        ]
      },
      "properties": {
        "id": "PLT-001",
        "name": "Cascade Quarry",
        "owner": "owned",
        "geology": "Hard Rock",
        "products": [
          "#57 Stone",
          "#8 Stone",
          "#9 Stone",
          "Manufactured Sand",
          "411 Base",
          "304 Base",
          "Crusher Fines"
        ]
      }
    },
    {
      "type": "Feature",
      "geometry": {
        "type": "Point",
        "coordinates": [
          -122.261,
          47.421
        ]
      },
      "properties": {
        "id": "PLT-002",
        "name": "Puget Sound Aggregates",
        "owner": "owned",
        "geology": "Sand & Gravel",
        "products": [
          "#57 Gravel",
          "#67 Gravel",
          "#8 Gravel",
          "#9 Gravel",
          "Sand",
          "411 Base",
          "304 Base"
        ]
      }
    },
    {
      "type": "Feature",
      "geometry": {
        "type": "Point",
        "coordinates": [
          -121.826,
          47.529
        ]
      },
      "properties": {
        "id": "PLT-003",
        "name": "Snoqualmie Stone Works",
        "owner": "owned",
        "geology": "Limestone",
        "products": [
          "#57 Stone",
          "#8 Stone",
          "#9 Stone",
          "Manufactured Sand",
          "411 Base",
          "304 Base",
          "Crusher Fines"
        ]
      }
    },
    {
      "type": "Feature",
      "geometry": {
        "type": "Point",
        "coordinates": [
          -122.118,
          47.674
        ]
      },
      "properties": {
        "id": "PLT-004",
        "name": "Glacier NW – Redmond",
        "owner": "competitor",
        "geology": "Hard Rock",
        "products": [
          "#57 Stone",
          "#8 Stone",
          "#9 Stone",
          "Manufactured Sand",
          "411 Base",
          "304 Base",
          "Crusher Fines"
        ]
      }
    },
    {
      "type": "Feature",
      "geometry": {
        "type": "Point",
        "coordinates": [
          -122.228,
          47.304
        ]
      },
      "properties": {
        "id": "PLT-005",
        "name": "Lehigh Hanson – Auburn",
        "owner": "competitor",
        "geology": "Sand & Gravel",
        "products": [
          "#57 Gravel",
          "#67 Gravel",
          "#8 Gravel",
          "#9 Gravel",
          "Sand",
          "411 Base",
          "304 Base"
        ]
      }
    },
    {
      "type": "Feature",
      "geometry": {
        "type": "Point",
        "coordinates": [
          -122.241,
          47.756
        ]
      },
      "properties": {
        "id": "PLT-006",
        "name": "Cadman – Kenmore",
        "owner": "competitor",
        "geology": "Limestone",
        "products": [
          "#57 Stone",
          "#8 Stone",
          "#9 Stone",
          "Manufactured Sand",
          "411 Base",
          "304 Base",
          "Crusher Fines"
        ]
      }
    }
  ]
}
